[{"OBJECT_NAME":"STARLINK-4446","OBJECT_ID":"2022-099AS","EPOCH":"2026-03-10T00:00:02.999808","MEAN_MOTION":15.39988094,"ECCENTRICITY":0.00015463,"INCLINATION":97.6064,"RA_OF_ASC_NODE":192.0252,"ARG_OF_PERICENTER":73.6068,"MEAN_ANOMALY":208.021,"EPHEMERIS_TYPE":0,"CLASSIFICATION_TYPE":"U","NORAD_CAT_ID":53505,"ELEMENT_SET_NO":999,"REV_AT_EPOCH":561,"BSTAR":0.0069528789,"MEAN_MOTION_DOT":0.00287489,"MEAN_MOTION_DDOT":0},{"OBJECT_NAME":"KUIPER-00249","OBJECT_ID":"2025-301X","EPOCH":"2026-03-09T05:18:48.483072","MEAN_MOTION":15.38089031,"ECCENTRICITY":0.0010501,"INCLINATION":51.8645,"RA_OF_ASC_NODE":67.547,"ARG_OF_PERICENTER":44.4239,"MEAN_ANOMALY":315.7589,"EPHEMERIS_TYPE":0,"CLASSIFICATION_TYPE":"U","NORAD_CAT_ID":67154,"ELEMENT_SET_NO":999,"REV_AT_EPOCH":1366,"BSTAR":0.00055185506,"MEAN_MOTION_DOT":0.0002071,"MEAN_MOTION_DDOT":0}]
